{
    "links": {
        "self": "http://www.neowsapp.com/rest/v1/neo/3546740?api_key=iIulBulltgU6a56xZRHN4H3l9WmuAYTsLGpBGhQ2"
    },
    "id": "3546740",
    "neo_reference_id": "3546740",
    "name": "(2010 SH)",
    "designation": "2010 SH",
    "nasa_jpl_url": "http://ssd.jpl.nasa.gov/sbdb.cgi?sstr=3546740",
    "absolute_magnitude_h": 23.2,
    "estimated_diameter": {
        "kilometers": {
            "estimated_diameter_min": 0.0608912622,
            "estimated_diameter_max": 0.1361570015
        },
        "meters": {
            "estimated_diameter_min": 60.8912622106,
            "estimated_diameter_max": 136.1570015386
        },
        "miles": {
            "estimated_diameter_min": 0.0378360645,
            "estimated_diameter_max": 0.0846040122
        },
        "feet": {
            "estimated_diameter_min": 199.7744887109,
            "estimated_diameter_max": 446.7093369279
        }
    },
    "is_potentially_hazardous_asteroid": false,
    "close_approach_data": [
        {
            "close_approach_date": "2010-09-28",
            "close_approach_date_full": "2010-Sep-28 20:49",
            "epoch_date_close_approach": 1285706940000,
            "relative_velocity": {
                "kilometers_per_second": "13.6037051145",
                "kilometers_per_hour": "48973.3384120481",
                "miles_per_hour": "30430.1279705307"
            },
            "miss_distance": {
                "astronomical": "0.1593088889",
                "lunar": "61.9711577821",
                "kilometers": "23832270.451506643",
                "miles": "14808686.1706639534"
            },
            "orbiting_body": "Earth"
        }
    ],
    "orbital_data": {
        "orbit_id": "7",
        "orbit_determination_date": "2019-07-16 06:14:06",
        "first_observation_date": "2010-09-16",
        "last_observation_date": "2010-09-17",
        "data_arc_in_days": 1,
        "observations_used": 12,
        "orbit_uncertainty": "9",
        "minimum_orbit_intersection": ".158762",
        "jupiter_tisserand_invariant": "4.082",
        "epoch_osculation": "2455456.5",
        "eccentricity": ".343029314483532",
        "semi_major_axis": "1.671288867552606",
        "inclination": "24.53002224164101",
        "ascending_node_longitude": "178.9519657294651",
        "orbital_period": "789.179340199418",
        "perihelion_distance": "1.097987793012077",
        "perihelion_argument": "221.9680123723576",
        "aphelion_distance": "2.244589942093135",
        "perihelion_time": "2455505.259788338632",
        "mean_anomaly": "337.7572436228857",
        "mean_motion": ".4561700765114194",
        "equinox": "J2000",
        "orbit_class": {
            "orbit_class_type": "AMO",
            "orbit_class_description": "Near-Earth asteroid orbits similar to that of 1221 Amor",
            "orbit_class_range": "1.017 AU < q (perihelion) < 1.3 AU"
        }
    },
    "is_sentry_object": false
}